CCSDS_OMM_VERS = 2.0
CREATION_DATE  = 
ORIGINATOR     = 

OBJECT_NAME    = CYGNUS NG-23
OBJECT_ID      = 2025-208A
CENTER_NAME    = EARTH
REF_FRAME      = TEME
TIME_SYSTEM    = UTC
MEAN_ELEMENT_THEORY = SGP/SGP4

EPOCH          = 2026-01-12T22:49:23.132352
MEAN_MOTION    = 15.49263082
ECCENTRICITY   = .00077162
INCLINATION    = 51.6330
RA_OF_ASC_NODE = 347.9568
ARG_OF_PERICENTER = 11.8640
MEAN_ANOMALY   = 348.2529

EPHEMERIS_TYPE = 0
CLASSIFICATION_TYPE = U
NORAD_CAT_ID   = 65616
ELEMENT_SET_NO = 999
REV_AT_EPOCH   = 22
BSTAR          = .14124674E-3
MEAN_MOTION_DOT = .7414E-4
MEAN_MOTION_DDOT = 0

CCSDS_OMM_VERS = 2.0
CREATION_DATE  = 
ORIGINATOR     = 

OBJECT_NAME    = DRAGONFLY
OBJECT_ID      = 1998-067XH
CENTER_NAME    = EARTH
REF_FRAME      = TEME
TIME_SYSTEM    = UTC
MEAN_ELEMENT_THEORY = SGP/SGP4

EPOCH          = 2026-01-13T03:14:29.722272
MEAN_MOTION    = 15.88194896
ECCENTRICITY   = .0008095
INCLINATION    = 51.6219
RA_OF_ASC_NODE = 333.3620
ARG_OF_PERICENTER = 100.8560
MEAN_ANOMALY   = 259.3356

EPHEMERIS_TYPE = 0
CLASSIFICATION_TYPE = U
NORAD_CAT_ID   = 65729
ELEMENT_SET_NO = 999
REV_AT_EPOCH   = 1812
BSTAR          = .10915E-2
MEAN_MOTION_DOT = .317578E-2
MEAN_MOTION_DDOT = 0

CCSDS_OMM_VERS = 2.0
CREATION_DATE  = 
ORIGINATOR     = 

OBJECT_NAME    = 1998-067XK
OBJECT_ID      = 1998-067XK
CENTER_NAME    = EARTH
REF_FRAME      = TEME
TIME_SYSTEM    = UTC
MEAN_ELEMENT_THEORY = SGP/SGP4

EPOCH          = 2026-01-13T03:06:31.766976
MEAN_MOTION    = 15.73432001
ECCENTRICITY   = .0004915
INCLINATION    = 51.6285
RA_OF_ASC_NODE = 337.1409
ARG_OF_PERICENTER = 72.1641
MEAN_ANOMALY   = 287.9894

EPHEMERIS_TYPE = 0
CLASSIFICATION_TYPE = U
NORAD_CAT_ID   = 65731
ELEMENT_SET_NO = 999
REV_AT_EPOCH   = 1807
BSTAR          = .76195E-3
MEAN_MOTION_DOT = .109037E-2
MEAN_MOTION_DDOT = 0

CCSDS_OMM_VERS = 2.0
CREATION_DATE  = 
ORIGINATOR     = 

OBJECT_NAME    = RSP-03
OBJECT_ID      = 1998-067XL
CENTER_NAME    = EARTH
REF_FRAME      = TEME
TIME_SYSTEM    = UTC
MEAN_ELEMENT_THEORY = SGP/SGP4

EPOCH          = 2026-01-13T02:44:10.083840
MEAN_MOTION    = 15.79550149
ECCENTRICITY   = .0005971
INCLINATION    = 51.6260
RA_OF_ASC_NODE = 335.5089
ARG_OF_PERICENTER = 81.6480
MEAN_ANOMALY   = 278.5198

EPHEMERIS_TYPE = 0
CLASSIFICATION_TYPE = U
NORAD_CAT_ID   = 65732
ELEMENT_SET_NO = 999
REV_AT_EPOCH   = 1810
BSTAR          = .93053E-3
MEAN_MOTION_DOT = .17623E-2
MEAN_MOTION_DDOT = 0

CCSDS_OMM_VERS = 2.0
CREATION_DATE  = 
ORIGINATOR     = 

OBJECT_NAME    = GHS-01
OBJECT_ID      = 1998-067XM
CENTER_NAME    = EARTH
REF_FRAME      = TEME
TIME_SYSTEM    = UTC
MEAN_ELEMENT_THEORY = SGP/SGP4

EPOCH          = 2026-01-13T03:55:03.034848
MEAN_MOTION    = 16.00347768
ECCENTRICITY   = .0007876
INCLINATION    = 51.6224
RA_OF_ASC_NODE = 331.2897
ARG_OF_PERICENTER = 114.6014
MEAN_ANOMALY   = 245.5817

EPHEMERIS_TYPE = 0
CLASSIFICATION_TYPE = U
NORAD_CAT_ID   = 65733
ELEMENT_SET_NO = 999
REV_AT_EPOCH   = 1816
BSTAR          = .14703E-2
MEAN_MOTION_DOT = .78705E-2
MEAN_MOTION_DDOT = .29915E-3

CCSDS_OMM_VERS = 2.0
CREATION_DATE  = 
ORIGINATOR     = 

OBJECT_NAME    = YOTSUBA-KULOVER
OBJECT_ID      = 1998-067XN
CENTER_NAME    = EARTH
REF_FRAME      = TEME
TIME_SYSTEM    = UTC
MEAN_ELEMENT_THEORY = SGP/SGP4

EPOCH          = 2026-01-12T22:29:21.513984
MEAN_MOTION    = 15.64609487
ECCENTRICITY   = .00040034
INCLINATION    = 51.6289
RA_OF_ASC_NODE = 342.6172
ARG_OF_PERICENTER = 95.9259
MEAN_ANOMALY   = 264.2192

EPHEMERIS_TYPE = 0
CLASSIFICATION_TYPE = U
NORAD_CAT_ID   = 65941
ELEMENT_SET_NO = 999
REV_AT_EPOCH   = 1473
BSTAR          = .65917713E-3
MEAN_MOTION_DOT = .65012E-3
MEAN_MOTION_DDOT = 0

CCSDS_OMM_VERS = 2.0
CREATION_DATE  = 
ORIGINATOR     = 

OBJECT_NAME    = BOTAN
OBJECT_ID      = 1998-067XP
CENTER_NAME    = EARTH
REF_FRAME      = TEME
TIME_SYSTEM    = UTC
MEAN_ELEMENT_THEORY = SGP/SGP4

EPOCH          = 2026-01-12T05:02:23.728704
MEAN_MOTION    = 15.71124823
ECCENTRICITY   = .00047324
INCLINATION    = 51.6268
RA_OF_ASC_NODE = 344.5014
ARG_OF_PERICENTER = 88.7806
MEAN_ANOMALY   = 271.3734

EPHEMERIS_TYPE = 0
CLASSIFICATION_TYPE = U
NORAD_CAT_ID   = 65942
ELEMENT_SET_NO = 999
REV_AT_EPOCH   = 1464
BSTAR          = .12261869E-2
MEAN_MOTION_DOT = .160384E-2
MEAN_MOTION_DDOT = 0

CCSDS_OMM_VERS = 2.0
CREATION_DATE  = 
ORIGINATOR     = 

OBJECT_NAME    = E-KAGAKU-1
OBJECT_ID      = 1998-067XQ
CENTER_NAME    = EARTH
REF_FRAME      = TEME
TIME_SYSTEM    = UTC
MEAN_ELEMENT_THEORY = SGP/SGP4

EPOCH          = 2026-01-12T22:29:12.410016
MEAN_MOTION    = 15.64596272
ECCENTRICITY   = .00025995
INCLINATION    = 51.6308
RA_OF_ASC_NODE = 342.6229
ARG_OF_PERICENTER = 93.3705
MEAN_ANOMALY   = 266.7587

EPHEMERIS_TYPE = 0
CLASSIFICATION_TYPE = U
NORAD_CAT_ID   = 65943
ELEMENT_SET_NO = 999
REV_AT_EPOCH   = 1473
BSTAR          = .63283171E-3
MEAN_MOTION_DOT = .62326E-3
MEAN_MOTION_DDOT = 0

CCSDS_OMM_VERS = 2.0
CREATION_DATE  = 
ORIGINATOR     = 

OBJECT_NAME    = HRC MONOBLOCK CAMERA
OBJECT_ID      = 1998-067XR
CENTER_NAME    = EARTH
REF_FRAME      = TEME
TIME_SYSTEM    = UTC
MEAN_ELEMENT_THEORY = SGP/SGP4

EPOCH          = 2026-01-13T04:47:05.327808
MEAN_MOTION    = 15.56569969
ECCENTRICITY   = .0001131
INCLINATION    = 51.6306
RA_OF_ASC_NODE = 344.3689
ARG_OF_PERICENTER = 355.6118
MEAN_ANOMALY   = 4.4863

EPHEMERIS_TYPE = 0
CLASSIFICATION_TYPE = U
NORAD_CAT_ID   = 66052
ELEMENT_SET_NO = 999
REV_AT_EPOCH   = 1373
BSTAR          = .40561E-3
MEAN_MOTION_DOT = .2899E-3
MEAN_MOTION_DDOT = 0

CCSDS_OMM_VERS = 2.0
CREATION_DATE  = 
ORIGINATOR     = 

OBJECT_NAME    = HTV-X1
OBJECT_ID      = 2025-241A
CENTER_NAME    = EARTH
REF_FRAME      = TEME
TIME_SYSTEM    = UTC
MEAN_ELEMENT_THEORY = SGP/SGP4

EPOCH          = 2026-01-12T22:49:23.132352
MEAN_MOTION    = 15.49263082
ECCENTRICITY   = .00077162
INCLINATION    = 51.6330
RA_OF_ASC_NODE = 347.9568
ARG_OF_PERICENTER = 11.8640
MEAN_ANOMALY   = 348.2529

EPHEMERIS_TYPE = 0
CLASSIFICATION_TYPE = U
NORAD_CAT_ID   = 66174
ELEMENT_SET_NO = 999
REV_AT_EPOCH   = 51
BSTAR          = .14124674E-3
MEAN_MOTION_DOT = .7414E-4
MEAN_MOTION_DDOT = 0

CCSDS_OMM_VERS = 2.0
CREATION_DATE  = 
ORIGINATOR     = 

OBJECT_NAME    = SZ-21 MODULE
OBJECT_ID      = 2025-246C
CENTER_NAME    = EARTH
REF_FRAME      = TEME
TIME_SYSTEM    = UTC
MEAN_ELEMENT_THEORY = SGP/SGP4

EPOCH          = 2026-01-13T03:49:47.084736
MEAN_MOTION    = 15.64420875
ECCENTRICITY   = .0001746
INCLINATION    = 41.4740
RA_OF_ASC_NODE = 184.1107
ARG_OF_PERICENTER = 156.7116
MEAN_ANOMALY   = 203.3803

EPHEMERIS_TYPE = 0
CLASSIFICATION_TYPE = U
NORAD_CAT_ID   = 66515
ELEMENT_SET_NO = 999
REV_AT_EPOCH   = 936
BSTAR          = .23567E-3
MEAN_MOTION_DOT = .23002E-3
MEAN_MOTION_DDOT = 0

CCSDS_OMM_VERS = 2.0
CREATION_DATE  = 
ORIGINATOR     = 

OBJECT_NAME    = SHENZHOU-22
OBJECT_ID      = 2025-272A
CENTER_NAME    = EARTH
REF_FRAME      = TEME
TIME_SYSTEM    = UTC
MEAN_ELEMENT_THEORY = SGP/SGP4

EPOCH          = 2026-01-12T19:57:11.090304
MEAN_MOTION    = 15.60461132
ECCENTRICITY   = .00115103
INCLINATION    = 41.4654
RA_OF_ASC_NODE = 187.7636
ARG_OF_PERICENTER = 272.9860
MEAN_ANOMALY   = 86.9661

EPHEMERIS_TYPE = 0
CLASSIFICATION_TYPE = U
NORAD_CAT_ID   = 66645
ELEMENT_SET_NO = 999
REV_AT_EPOCH   = 26764
BSTAR          = .21248408E-3
MEAN_MOTION_DOT = .17741E-3
MEAN_MOTION_DDOT = 0

